[ {"name": "STARLINK-4007", "line1": "1 52707U 22053BD  26103.89965250  .00000173  00000+0  28949-4 0  9995", "line2": "2 52707  53.2180 335.9421 0001458  84.6268 275.4890 15.08839888216698"}, {"name": "STARLINK-3962", "line1": "1 52708U 22053BE  26104.00998904  .00012747  00000+0  81557-3 0  9995", "line2": "2 52708  53.2182 335.5473 0000369  78.4212 281.6822 15.08927399216851"}, {"name": "STARLINK-4091", "line1": "1 52830U 22062A   26104.08921007  .00000899  00000+0  74557-4 0  9997", "line2": "2 52830  53.2161 235.3986 0000877  77.5378 282.5712 15.08842214211122"}, {"name": "STARLINK-4089", "line1": "1 52831U 22062B   26103.61814267  .00001504  00000+0  11253-3 0  9992", "line2": "2 52831  53.2174 237.3182 0001269  89.8860 270.2278 15.08840176211053"}, {"name": "STARLINK-4083", "line1": "1 52832U 22062C   26104.07814564  .00000662  00000+0  59669-4 0  9992", "line2": "2 52832  53.2174 235.2543 0001272  85.5460 274.5677 15.08839730211127"}, {"name": "STARLINK-4086", "line1": "1 52833U 22062D   26103.74326853  .00000826  00000+0  69956-4 0  9997", "line2": "2 52833  53.2168 236.7572 0000871  73.7359 286.3729 15.08835665211075"}, {"name": "STARLINK-4108", "line1": "1 52834U 22062E   26104.06710556  .00000168  00000+0  28627-4 0  9990", "line2": "2 52834  53.2171 235.3050 0001246  85.1167 274.9967 15.08835156211125"}, {"name": "STARLINK-4080", "line1": "1 52835U 22062F   26104.06342834 -.00000328  00000+0 -25311-5 0  9999", "line2": "2 52835  53.2180 235.3229 0001021  73.1645 286.9459 15.08845261211120"}, {"name": "STARLINK-4043", "line1": "1 52836U 22062G   26104.16668980  .00065162  00000+0  31505-2 0  9998", "line2": "2 52836  53.2184 234.6170 0001429  67.0857 278.8754 15.18028219  5868"}, {"name": "STARLINK-4036", "line1": "1 52837U 22062H   26103.78742405 -.00000023  00000+0  16647-4 0  9999", "line2": "2 52837  53.2173 236.5620 0001348  87.8000 272.3146 15.08835896211081"}, {"name": "STARLINK-4092", "line1": "1 52838U 22062J   26104.05606369 -.00000215  00000+0  46003-5 0  9992", "line2": "2 52838  53.2172 235.3449 0001285  87.1614 272.9525 15.08834385211125"}, {"name": "STARLINK-4048", "line1": "1 52839U 22062K   26103.78006348  .00000408  00000+0  43705-4 0  9991", "line2": "2 52839  53.2172 236.5953 0001332  90.2677 269.8467 15.08839443211081"}, {"name": "STARLINK-4049", "line1": "1 52840U 22062L   26104.16668980  .00071471  00000+0  30545-2 0  9996", "line2": "2 52840  53.2179 233.9068 0000787  93.7766 320.8932 15.22228142  5853"}, {"name": "STARLINK-4065", "line1": "1 52841U 22062M   26104.10022132  .00000519  00000+0  50672-4 0  9994", "line2": "2 52841  53.2172 235.1553 0001258  90.3391 269.7745 15.08841434211133"}, {"name": "STARLINK-4046", "line1": "1 52842U 22062N   26103.78373608 -.00000215  00000+0  45750-5 0  9991", "line2": "2 52842  53.2187 236.5017 0001315  93.0134 267.1008 15.08836492211085"}, {"name": "STARLINK-4188", "line1": "1 52843U 22062P   26104.09286257  .00000300  00000+0  36907-4 0  9997", "line2": "2 52843  53.2181 235.1890 0001203  88.5956 271.5173 15.08840090211138"}, {"name": "STARLINK-4208", "line1": "1 52844U 22062Q   26103.64394786 -.00007916  00000+0 -48043-3 0  9990", "line2": "2 52844  53.2127 237.2018 0001547  84.6051 275.5117 15.08791085211061"}, {"name": "STARLINK-4168", "line1": "1 52845U 22062R   26104.09655162  .00000223  00000+0  32123-4 0  9994", "line2": "2 52845  53.2164 235.2368 0001382  90.1893 269.9257 15.08841072211134"}, {"name": "STARLINK-4212", "line1": "1 52846U 22062S   26103.63381279  .00005246  00000+0  34733-3 0  9997", "line2": "2 52846  53.2224 237.2579 0000355  49.4296 310.6727 15.08848773211064"}, {"name": "STARLINK-4206", "line1": "1 52847U 22062T   26104.08550487  .00001002  00000+0  81038-4 0  9994", "line2": "2 52847  53.2163 235.2233 0001126  91.7003 268.4118 15.08841379211132"}, {"name": "STARLINK-4202", "line1": "1 52848U 22062U   26103.64023838  .00002445  00000+0  17166-3 0  9993", "line2": "2 52848  53.2149 237.2191 0001714  94.6052 265.5136 15.08835683211062"}, {"name": "STARLINK-4197", "line1": "1 52849U 22062V   26103.61538243  .00000405  00000+0  43553-4 0  9996", "line2": "2 52849  53.2160 227.3310 0001362  97.3688 262.7459 15.08839022211195"}, {"name": "STARLINK-4187", "line1": "1 52850U 22062W   26104.05706639 -.00003972  00000+0 -23156-3 0  9993", "line2": "2 52850  53.2169 235.7079 0001143  91.2193 268.8930 15.08843852211122"}, {"name": "STARLINK-3809", "line1": "1 52851U 22062X   26103.61170089  .00000416  00000+0  44195-4 0  9994", "line2": "2 52851  53.2154 227.3474 0000819  85.7555 274.3531 15.08839201211191"}, {"name": "STARLINK-4184", "line1": "1 52852U 22062Y   26103.61906350  .00000356  00000+0  40483-4 0  9992", "line2": "2 52852  53.2165 227.3168 0001192  90.5288 269.5841 15.08838230211197"}, {"name": "STARLINK-4189", "line1": "1 52853U 22062Z   26104.19778316  .00000325  00000+0  38482-4 0  9998", "line2": "2 52853  53.2163 224.6908 0001193  87.7046 272.4083 15.08834737211288"}, {"name": "STARLINK-4204", "line1": "1 52854U 22062AA  26104.07170470 -.00000134  00000+0  96784-5 0  9992", "line2": "2 52854  53.2171 225.2804 0001023  84.4495 275.6614 15.08837305211261"}, {"name": "STARLINK-4209", "line1": "1 52855U 22062AB  26104.06064146  .00001915  00000+0  13828-3 0  9997", "line2": "2 52855  53.2179 225.3336 0001601  82.6161 277.5013 15.08859235211263"}, {"name": "STARLINK-4201", "line1": "1 52856U 22062AC  26104.06898625  .00001052  00000+0  84154-4 0  9998", "line2": "2 52856  53.2169 225.3430 0001414  84.6777 275.4376 15.08841481211268"}, {"name": "STARLINK-4199", "line1": "1 52857U 22062AD  26103.72210801 -.00001213  00000+0 -58145-4 0  9997", "line2": "2 52857  53.2170 226.8548 0001194  84.8704 275.2424 15.08841241211215"}, {"name": "STARLINK-4198", "line1": "1 52858U 22062AE  26104.06436014  .00001735  00000+0  12704-3 0  9999", "line2": "2 52858  53.2175 225.3444 0001245  84.3852 275.7282 15.08839538211264"}, {"name": "STARLINK-4196", "line1": "1 52859U 22062AF  26104.04963128 -.00000534  00000+0 -15478-4 0  9999", "line2": "2 52859  53.2168 225.3827 0001123  78.7920 281.3199 15.08832835211263"}, {"name": "STARLINK-4191", "line1": "1 52860U 22062AG  26104.05698325  .00000587  00000+0  54955-4 0  9995", "line2": "2 52860  53.2168 225.3510 0001280  88.1785 271.9354 15.08839891211269"}, {"name": "STARLINK-4112", "line1": "1 52861U 22062AH  26104.03219028 -.00000831  00000+0 -34133-4 0  9993", "line2": "2 52861  53.2178 225.4693 0000785  53.2947 306.8117 15.08829089211269"}, {"name": "STARLINK-4010", "line1": "1 52862U 22062AJ  26104.04594348  .00001089  00000+0  86483-4 0  9995", "line2": "2 52862  53.2167 225.3992 0001265  85.6843 274.4293 15.08841070211266"}, {"name": "STARLINK-4270", "line1": "1 52863U 22062AK  26104.03858889  .00000503  00000+0  49663-4 0  9997", "line2": "2 52863  53.2187 225.4345 0000833  76.3903 283.7181 15.08836934211268"}, {"name": "STARLINK-4267", "line1": "1 52864U 22062AL  26104.04226692 -.00001172  00000+0 -55593-4 0  9994", "line2": "2 52864  53.2167 225.4158 0000772  72.6283 287.4793 15.08838446211261"}, {"name": "STARLINK-4274", "line1": "1 52865U 22062AM  26104.02754742 -.00000214  00000+0  46293-5 0  9998", "line2": "2 52865  53.2181 225.4851 0001285  86.0441 274.0698 15.08834687211262"}, {"name": "STARLINK-4272", "line1": "1 52866U 22062AN  26104.03490714  .00000504  00000+0  49747-4 0  9993", "line2": "2 52866  53.2174 225.4520 0001115  77.7456 282.3661 15.08832777211263"}, {"name": "STARLINK-4126", "line1": "1 52867U 22062AP  26103.62274507  .00000390  00000+0  42622-4 0  9996", "line2": "2 52867  53.2163 227.3002 0001360  93.4248 266.6900 15.08837772211209"}, {"name": "STARLINK-4261", "line1": "1 52868U 22062AQ  26104.03122985  .00001217  00000+0  94565-4 0  9997", "line2": "2 52868  53.2173 225.4963 0001072  98.4217 261.6896 15.08832309211263"}, {"name": "STARLINK-4266", "line1": "1 52869U 22062AR  26104.01373927 -.00002626  00000+0 -14694-3 0  9991", "line2": "2 52869  53.2174 215.5430 0000524  56.6614 303.4428 15.08856519211391"}, {"name": "STARLINK-4207", "line1": "1 52871U 22062AT  26104.00271049  .00001129  00000+0  89039-4 0  9996", "line2": "2 52871  53.2179 215.5959 0001295  91.0023 269.1118 15.08836511211392"}, {"name": "STARLINK-4213", "line1": "1 52872U 22062AU  26104.00734005 -.00000020  00000+0  16816-4 0  9996", "line2": "2 52872  53.2170 215.5460 0001273  88.5096 271.6042 15.08834575211390"}, {"name": "STARLINK-4211", "line1": "1 52873U 22062AV  26103.59790544 -.00000038  00000+0  15698-4 0  9996", "line2": "2 52873  53.2190 217.4125 0001336  93.4946 266.6199 15.08837774211336"}, {"name": "STARLINK-4193", "line1": "1 52875U 22062AX  26103.59422594 -.00004390  00000+0 -25785-3 0  9998", "line2": "2 52875  53.2177 217.4274 0001527  87.4030 272.7137 15.08842953211332"}, {"name": "STARLINK-4200", "line1": "1 52876U 22062AY  26103.99902604  .00000743  00000+0  64766-4 0  9997", "line2": "2 52876  53.2183 215.6121 0001192  87.4165 272.6963 15.08838357211393"}, {"name": "STARLINK-4214", "line1": "1 52877U 22062AZ  26104.03213813  .00000185  00000+0  29754-4 0  9999", "line2": "2 52877  53.2154 215.4726 0001831  88.0256 272.0945 15.08845721211408"}, {"name": "STARLINK-4171", "line1": "1 52878U 22062BA  26103.59054465  .00000375  00000+0  41624-4 0  9997", "line2": "2 52878  53.2176 217.4433 0001186  89.2967 270.8161 15.08838417211337"}, {"name": "STARLINK-4139", "line1": "1 52879U 22062BB  26104.02110948 -.00000093  00000+0  12247-4 0  9993", "line2": "2 52879  53.2156 215.5112 0001105  89.0133 271.0986 15.08833785211402"}, {"name": "STARLINK-4186", "line1": "1 52880U 22062BC  26104.02478831 -.00000211  00000+0  48545-5 0  9996", "line2": "2 52880  53.2165 215.4969 0001310  87.7899 272.3243 15.08835444211409"}, {"name": "STARLINK-4181", "line1": "1 52882U 22062BE  26104.04313157 -.00000092  00000+0  12289-4 0  9991", "line2": "2 52882  53.2167 214.9850 0001170  87.2091 272.9035 15.08839727211413"}]